{
    "links": {
        "self": "http://www.neowsapp.com/rest/v1/neo/3607532?api_key=iIulBulltgU6a56xZRHN4H3l9WmuAYTsLGpBGhQ2"
    },
    "id": "3607532",
    "neo_reference_id": "3607532",
    "name": "(2012 PD20)",
    "designation": "2012 PD20",
    "nasa_jpl_url": "http://ssd.jpl.nasa.gov/sbdb.cgi?sstr=3607532",
    "absolute_magnitude_h": 25.4,
    "estimated_diameter": {
        "kilometers": {
            "estimated_diameter_min": 0.022108281,
            "estimated_diameter_max": 0.0494356193
        },
        "meters": {
            "estimated_diameter_min": 22.1082810359,
            "estimated_diameter_max": 49.435619262
        },
        "miles": {
            "estimated_diameter_min": 0.0137374447,
            "estimated_diameter_max": 0.0307178602
        },
        "feet": {
            "estimated_diameter_min": 72.5337327539,
            "estimated_diameter_max": 162.1903570994
        }
    },
    "is_potentially_hazardous_asteroid": false,
    "close_approach_data": [
        {
            "close_approach_date": "1954-06-25",
            "close_approach_date_full": "1954-Jun-25 12:50",
            "epoch_date_close_approach": -489755400000,
            "relative_velocity": {
                "kilometers_per_second": "17.7660473691",
                "kilometers_per_hour": "63957.7705286524",
                "miles_per_hour": "39740.8713598729"
            },
            "miss_distance": {
                "astronomical": "0.3992512607",
                "lunar": "155.3087404123",
                "kilometers": "59727138.195534709",
                "miles": "37112722.7348846242"
            },
            "orbiting_body": "Earth"
        },
        {
            "close_approach_date": "2007-07-05",
            "close_approach_date_full": "2007-Jul-05 11:07",
            "epoch_date_close_approach": 1183633620000,
            "relative_velocity": {
                "kilometers_per_second": "13.663902032",
                "kilometers_per_hour": "49190.0473152954",
                "miles_per_hour": "30564.7824554401"
            },
            "miss_distance": {
                "astronomical": "0.25959575",
                "lunar": "100.98274675",
                "kilometers": "38834971.2610525",
                "miles": "24130932.1754245"
            },
            "orbiting_body": "Earth"
        },
        {
            "close_approach_date": "2012-08-18",
            "close_approach_date_full": "2012-Aug-18 04:19",
            "epoch_date_close_approach": 1345263540000,
            "relative_velocity": {
                "kilometers_per_second": "6.0842932379",
                "kilometers_per_hour": "21903.4556566012",
                "miles_per_hour": "13609.9555439587"
            },
            "miss_distance": {
                "astronomical": "0.024814875",
                "lunar": "9.652986375",
                "kilometers": "3712252.44431625",
                "miles": "2306686.70641425"
            },
            "orbiting_body": "Earth"
        },
        {
            "close_approach_date": "2017-10-04",
            "close_approach_date_full": "2017-Oct-04 03:16",
            "epoch_date_close_approach": 1507086960000,
            "relative_velocity": {
                "kilometers_per_second": "14.7230191578",
                "kilometers_per_hour": "53002.8689679803",
                "miles_per_hour": "32933.9215540209"
            },
            "miss_distance": {
                "astronomical": "0.3006541872",
                "lunar": "116.9544788208",
                "kilometers": "44977226.011701264",
                "miles": "27947552.2984508832"
            },
            "orbiting_body": "Earth"
        },
        {
            "close_approach_date": "2065-10-14",
            "close_approach_date_full": "2065-Oct-14 01:23",
            "epoch_date_close_approach": 3022708980000,
            "relative_velocity": {
                "kilometers_per_second": "19.4316808419",
                "kilometers_per_hour": "69954.0510310103",
                "miles_per_hour": "43466.7268753519"
            },
            "miss_distance": {
                "astronomical": "0.4580114453",
                "lunar": "178.1664522217",
                "kilometers": "68517536.652501511",
                "miles": "42574823.0550864118"
            },
            "orbiting_body": "Earth"
        }
    ],
    "orbital_data": {
        "orbit_id": "10",
        "orbit_determination_date": "2017-04-06 08:49:17",
        "first_observation_date": "2012-08-15",
        "last_observation_date": "2012-09-11",
        "data_arc_in_days": 27,
        "observations_used": 54,
        "orbit_uncertainty": "7",
        "minimum_orbit_intersection": ".0242387",
        "jupiter_tisserand_invariant": "3.873",
        "epoch_osculation": "2459000.5",
        "eccentricity": ".4427451942556558",
        "semi_major_axis": "1.855601862400108",
        "inclination": "3.638636085184997",
        "ascending_node_longitude": "136.5905841614381",
        "orbital_period": "923.2634145943587",
        "perihelion_distance": "1.034043055370615",
        "perihelion_argument": "191.4794915451135",
        "aphelion_distance": "2.6771606694296",
        "perihelion_time": "2458929.536042162028",
        "mean_anomaly": "27.67035324679709",
        "mean_motion": ".3899212232493455",
        "equinox": "J2000",
        "orbit_class": {
            "orbit_class_type": "AMO",
            "orbit_class_description": "Near-Earth asteroid orbits similar to that of 1221 Amor",
            "orbit_class_range": "1.017 AU < q (perihelion) < 1.3 AU"
        }
    },
    "is_sentry_object": false
}